[{"COMMENT":"GENERATED VIA SPACETRACK.ORG API","ORIGINATOR":"18 SPCS","NORAD_CAT_ID":"45120","OBJECT_NAME":"VPM","OBJECT_TYPE":"PAYLOAD","CLASSIFICATION_TYPE":"U","INTLDES":"19071K","EPOCH":"2020-08-28 13:07:51","EPOCH_MICROSECONDS":"404736","MEAN_MOTION":"15.34420044","ECCENTRICITY":"0.0011209","INCLINATION":"51.6438","RA_OF_ASC_NODE":"14.3263","ARG_OF_PERICENTER":"315.4729","MEAN_ANOMALY":"44.5352","EPHEMERIS_TYPE":"0","ELEMENT_SET_NO":"999","REV_AT_EPOCH":"3208","BSTAR":"0.000089637","MEAN_MOTION_DOT":"0.00002656","MEAN_MOTION_DDOT":"0","FILE":"2810322","TLE_LINE0":"0 VPM","TLE_LINE1":"1 45120U 19071K   20241.54712274 +.00002656 +00000-0 +89637-4 0  9997","TLE_LINE2":"2 45120 051.6438 014.3263 0011209 315.4729 044.5352 15.34420044032087","OBJECT_ID":"2019-071K","OBJECT_NUMBER":"45120","SEMIMAJOR_AXIS":"6840.780","PERIOD":"93.846","APOGEE":"470.313","PERIGEE":"454.977","DECAYED":"0"},{"COMMENT":"GENERATED VIA SPACETRACK.ORG API","ORIGINATOR":"18 SPCS","NORAD_CAT_ID":"45120","OBJECT_NAME":"VPM","OBJECT_TYPE":"PAYLOAD","CLASSIFICATION_TYPE":"U","INTLDES":"19071K","EPOCH":"2020-08-28 19:22:59","EPOCH_MICROSECONDS":"873952","MEAN_MOTION":"15.34423808","ECCENTRICITY":"0.0011223","INCLINATION":"51.6438","RA_OF_ASC_NODE":"13.0658","ARG_OF_PERICENTER":"316.4581","MEAN_ANOMALY":"43.5515","EPHEMERIS_TYPE":"0","ELEMENT_SET_NO":"999","REV_AT_EPOCH":"3212","BSTAR":"0.00011305","MEAN_MOTION_DOT":"0.00003452","MEAN_MOTION_DDOT":"0","FILE":"2810453","TLE_LINE0":"0 VPM","TLE_LINE1":"1 45120U 19071K   20241.80763743 +.00003452 +00000-0 +11305-3 0  9994","TLE_LINE2":"2 45120 051.6438 013.0658 0011223 316.4581 043.5515 15.34423808032120","OBJECT_ID":"2019-071K","OBJECT_NUMBER":"45120","SEMIMAJOR_AXIS":"6840.769","PERIOD":"93.846","APOGEE":"470.311","PERIGEE":"454.957","DECAYED":"0"},{"COMMENT":"GENERATED VIA SPACETRACK.ORG API","ORIGINATOR":"18 SPCS","NORAD_CAT_ID":"45120","OBJECT_NAME":"VPM","OBJECT_TYPE":"PAYLOAD","CLASSIFICATION_TYPE":"U","INTLDES":"19071K","EPOCH":"2020-08-29 01:38:08","EPOCH_MICROSECONDS":"350080","MEAN_MOTION":"15.34425318","ECCENTRICITY":"0.0011234","INCLINATION":"51.6438","RA_OF_ASC_NODE":"11.8053","ARG_OF_PERICENTER":"317.4215","MEAN_ANOMALY":"42.5896","EPHEMERIS_TYPE":"0","ELEMENT_SET_NO":"999","REV_AT_EPOCH":"3216","BSTAR":"0.00011056","MEAN_MOTION_DOT":"0.00003367","MEAN_MOTION_DDOT":"0","FILE":"2810606","TLE_LINE0":"0 VPM","TLE_LINE1":"1 45120U 19071K   20242.06815220  .00003367  00000-0  11056-3 0  9999","TLE_LINE2":"2 45120  51.6438  11.8053 0011234 317.4215  42.5896 15.34425318 32165","OBJECT_ID":"2019-071K","OBJECT_NUMBER":"45120","SEMIMAJOR_AXIS":"6840.764","PERIOD":"93.846","APOGEE":"470.314","PERIGEE":"454.945","DECAYED":"0"},{"COMMENT":"GENERATED VIA SPACETRACK.ORG API","ORIGINATOR":"18 SPCS","NORAD_CAT_ID":"45120","OBJECT_NAME":"VPM","OBJECT_TYPE":"PAYLOAD","CLASSIFICATION_TYPE":"U","INTLDES":"19071K","EPOCH":"2020-08-29 12:34:38","EPOCH_MICROSECONDS":"129088","MEAN_MOTION":"15.34429305","ECCENTRICITY":"0.0011242","INCLINATION":"51.6437","RA_OF_ASC_NODE":"9.5994","ARG_OF_PERICENTER":"319.0669","MEAN_ANOMALY":"40.9469","EPHEMERIS_TYPE":"0","ELEMENT_SET_NO":"999","REV_AT_EPOCH":"3223","BSTAR":"0.00012552","MEAN_MOTION_DOT":"0.00003876","MEAN_MOTION_DDOT":"0","FILE":"2810901","TLE_LINE0":"0 VPM","TLE_LINE1":"1 45120U 19071K   20242.52405242 +.00003876 +00000-0 +12552-3 0  9996","TLE_LINE2":"2 45120 051.6437 009.5994 0011242 319.0669 040.9469 15.34429305032238","OBJECT_ID":"2019-071K","OBJECT_NUMBER":"45120","SEMIMAJOR_AXIS":"6840.753","PERIOD":"93.845","APOGEE":"470.308","PERIGEE":"454.927","DECAYED":"0"},{"COMMENT":"GENERATED VIA SPACETRACK.ORG API","ORIGINATOR":"18 SPCS","NORAD_CAT_ID":"45120","OBJECT_NAME":"VPM","OBJECT_TYPE":"PAYLOAD","CLASSIFICATION_TYPE":"U","INTLDES":"19071K","EPOCH":"2020-08-29 18:49:46","EPOCH_MICROSECONDS":"573248","MEAN_MOTION":"15.34429768","ECCENTRICITY":"0.0011258","INCLINATION":"51.6437","RA_OF_ASC_NODE":"8.3391","ARG_OF_PERICENTER":"320.0572","MEAN_ANOMALY":"39.9581","EPHEMERIS_TYPE":"0","ELEMENT_SET_NO":"999","REV_AT_EPOCH":"3227","BSTAR":"0.00011385","MEAN_MOTION_DOT":"0.00003479","MEAN_MOTION_DDOT":"0","FILE":"2811057","TLE_LINE0":"0 VPM","TLE_LINE1":"1 45120U 19071K   20242.78456682 +.00003479 +00000-0 +11385-3 0  9990","TLE_LINE2":"2 45120 051.6437 008.3391 0011258 320.0572 039.9581 15.34429768032278","OBJECT_ID":"2019-071K","OBJECT_NUMBER":"45120","SEMIMAJOR_AXIS":"6840.751","PERIOD":"93.845","APOGEE":"470.318","PERIGEE":"454.915","DECAYED":"0"},{"COMMENT":"GENERATED VIA SPACETRACK.ORG API","ORIGINATOR":"18 SPCS","NORAD_CAT_ID":"45120","OBJECT_NAME":"VPM","OBJECT_TYPE":"PAYLOAD","CLASSIFICATION_TYPE":"U","INTLDES":"19071K","EPOCH":"2020-08-30 12:01:24","EPOCH_MICROSECONDS":"514752","MEAN_MOTION":"15.34436391","ECCENTRICITY":"0.0011279","INCLINATION":"51.6438","RA_OF_ASC_NODE":"4.8727","ARG_OF_PERICENTER":"322.6194","MEAN_ANOMALY":"37.4002","EPHEMERIS_TYPE":"0","ELEMENT_SET_NO":"999","REV_AT_EPOCH":"3238","BSTAR":"0.00013316","MEAN_MOTION_DOT":"0.00004136","MEAN_MOTION_DDOT":"0","FILE":"2811323","TLE_LINE0":"0 VPM","TLE_LINE1":"1 45120U 19071K   20243.50097818  .00004136  00000-0  13316-3 0  9990","TLE_LINE2":"2 45120  51.6438   4.8727 0011279 322.6194  37.4002 15.34436391 32387","OBJECT_ID":"2019-071K","OBJECT_NUMBER":"45120","SEMIMAJOR_AXIS":"6840.732","PERIOD":"93.845","APOGEE":"470.312","PERIGEE":"454.881","DECAYED":"0"},{"COMMENT":"GENERATED VIA SPACETRACK.ORG API","ORIGINATOR":"18 SPCS","NORAD_CAT_ID":"45120","OBJECT_NAME":"VPM","OBJECT_TYPE":"PAYLOAD","CLASSIFICATION_TYPE":"U","INTLDES":"19071K","EPOCH":"2020-08-30 13:35:11","EPOCH_MICROSECONDS":"593824","MEAN_MOTION":"15.34436673","ECCENTRICITY":"0.0011275","INCLINATION":"51.6437","RA_OF_ASC_NODE":"4.5576","ARG_OF_PERICENTER":"322.7752","MEAN_ANOMALY":"37.2448","EPHEMERIS_TYPE":"0","ELEMENT_SET_NO":"999","REV_AT_EPOCH":"3239","BSTAR":"0.00013219","MEAN_MOTION_DOT":"0.00004103","MEAN_MOTION_DDOT":"0","FILE":"2811369","TLE_LINE0":"0 VPM","TLE_LINE1":"1 45120U 19071K   20243.56610641 +.00004103 +00000-0 +13219-3 0  9997","TLE_LINE2":"2 45120 051.6437 004.5576 0011275 322.7752 037.2448 15.34436673032398","OBJECT_ID":"2019-071K","OBJECT_NUMBER":"45120","SEMIMAJOR_AXIS":"6840.731","PERIOD":"93.845","APOGEE":"470.309","PERIGEE":"454.883","DECAYED":"0"},{"COMMENT":"GENERATED VIA SPACETRACK.ORG API","ORIGINATOR":"18 SPCS","NORAD_CAT_ID":"45120","OBJECT_NAME":"VPM","OBJECT_TYPE":"PAYLOAD","CLASSIFICATION_TYPE":"U","INTLDES":"19071K","EPOCH":"2020-08-30 19:50:19","EPOCH_MICROSECONDS":"890240","MEAN_MOTION":"15.34438445","ECCENTRICITY":"0.0011288","INCLINATION":"51.6437","RA_OF_ASC_NODE":"3.2971","ARG_OF_PERICENTER":"323.7348","MEAN_ANOMALY":"36.2868","EPHEMERIS_TYPE":"0","ELEMENT_SET_NO":"999","REV_AT_EPOCH":"3243","BSTAR":"0.00013075","MEAN_MOTION_DOT":"0.00004055","MEAN_MOTION_DDOT":"0","FILE":"2811550","TLE_LINE0":"0 VPM","TLE_LINE1":"1 45120U 19071K   20243.82661910 +.00004055 +00000-0 +13075-3 0  9997","TLE_LINE2":"2 45120 051.6437 003.2971 0011288 323.7348 036.2868 15.34438445032438","OBJECT_ID":"2019-071K","OBJECT_NUMBER":"45120","SEMIMAJOR_AXIS":"6840.725","PERIOD":"93.845","APOGEE":"470.312","PERIGEE":"454.869","DECAYED":"0"},{"COMMENT":"GENERATED VIA SPACETRACK.ORG API","ORIGINATOR":"18 SPCS","NORAD_CAT_ID":"45120","OBJECT_NAME":"VPM","OBJECT_TYPE":"PAYLOAD","CLASSIFICATION_TYPE":"U","INTLDES":"19071K","EPOCH":"2020-08-31 13:01:57","EPOCH_MICROSECONDS":"423072","MEAN_MOTION":"15.34446995","ECCENTRICITY":"0.0011315","INCLINATION":"51.6438","RA_OF_ASC_NODE":"359.8307","ARG_OF_PERICENTER":"326.2302","MEAN_ANOMALY":"33.7958","EPHEMERIS_TYPE":"0","ELEMENT_SET_NO":"999","REV_AT_EPOCH":"3254","BSTAR":"0.00015987","MEAN_MOTION_DOT":"0.00005046","MEAN_MOTION_DDOT":"0","FILE":"2811973","TLE_LINE0":"0 VPM","TLE_LINE1":"1 45120U 19071K   20244.54302573 +.00005046 +00000-0 +15987-3 0  9999","TLE_LINE2":"2 45120 051.6438 359.8307 0011315 326.2302 033.7958 15.34446995032544","OBJECT_ID":"2019-071K","OBJECT_NUMBER":"45120","SEMIMAJOR_AXIS":"6840.700","PERIOD":"93.844","APOGEE":"470.305","PERIGEE":"454.825","DECAYED":"0"},{"COMMENT":"GENERATED VIA SPACETRACK.ORG API","ORIGINATOR":"18 SPCS","NORAD_CAT_ID":"45120","OBJECT_NAME":"VPM","OBJECT_TYPE":"PAYLOAD","CLASSIFICATION_TYPE":"U","INTLDES":"19071K","EPOCH":"2020-08-31 17:43:18","EPOCH_MICROSECONDS":"525504","MEAN_MOTION":"15.34448858","ECCENTRICITY":"0.0011319","INCLINATION":"51.6439","RA_OF_ASC_NODE":"358.8854","ARG_OF_PERICENTER":"326.9583","MEAN_ANOMALY":"33.0691","EPHEMERIS_TYPE":"0","ELEMENT_SET_NO":"999","REV_AT_EPOCH":"3257","BSTAR":"0.00016017","MEAN_MOTION_DOT":"0.00005056","MEAN_MOTION_DDOT":"0","FILE":"2812118","TLE_LINE0":"0 VPM","TLE_LINE1":"1 45120U 19071K   20244.73840886  .00005056  00000-0  16017-3 0  9990","TLE_LINE2":"2 45120  51.6439 358.8854 0011319 326.9583  33.0691 15.34448858 32573","OBJECT_ID":"2019-071K","OBJECT_NUMBER":"45120","SEMIMAJOR_AXIS":"6840.695","PERIOD":"93.844","APOGEE":"470.303","PERIGEE":"454.817","DECAYED":"0"},{"COMMENT":"GENERATED VIA SPACETRACK.ORG API","ORIGINATOR":"18 SPCS","NORAD_CAT_ID":"45120","OBJECT_NAME":"VPM","OBJECT_TYPE":"PAYLOAD","CLASSIFICATION_TYPE":"U","INTLDES":"19071K","EPOCH":"2020-08-31 19:17:05","EPOCH_MICROSECONDS":"538912","MEAN_MOTION":"15.34450031","ECCENTRICITY":"0.0011328","INCLINATION":"51.6439","RA_OF_ASC_NODE":"358.5702","ARG_OF_PERICENTER":"327.1995","MEAN_ANOMALY":"32.8283","EPHEMERIS_TYPE":"0","ELEMENT_SET_NO":"999","REV_AT_EPOCH":"3258","BSTAR":"0.00016582","MEAN_MOTION_DOT":"0.00005248","MEAN_MOTION_DDOT":"0","FILE":"2812159","TLE_LINE0":"0 VPM","TLE_LINE1":"1 45120U 19071K   20244.80353633 +.00005248 +00000-0 +16582-3 0  9997","TLE_LINE2":"2 45120 051.6439 358.5702 0011328 327.1995 032.8283 15.34450031032583","OBJECT_ID":"2019-071K","OBJECT_NUMBER":"45120","SEMIMAJOR_AXIS":"6840.691","PERIOD":"93.844","APOGEE":"470.305","PERIGEE":"454.807","DECAYED":"0"}]